[{"OBJECT_NAME":"DIWATA-2B","OBJECT_ID":"2018-084H","EPOCH":"2026-03-09T23:44:16.821312","MEAN_MOTION":14.99967379,"ECCENTRICITY":0.00117782,"INCLINATION":98.1039,"RA_OF_ASC_NODE":261.0381,"ARG_OF_PERICENTER":125.8755,"MEAN_ANOMALY":234.3563,"EPHEMERIS_TYPE":0,"CLASSIFICATION_TYPE":"U","NORAD_CAT_ID":43678,"ELEMENT_SET_NO":999,"REV_AT_EPOCH":40134,"BSTAR":0.00041230334,"MEAN_MOTION_DOT":5.066e-5,"MEAN_MOTION_DDOT":0},{"OBJECT_NAME":"STARLINK-34629","OBJECT_ID":"2025-150A","EPOCH":"2026-03-09T13:59:24.085824","MEAN_MOTION":14.98326529,"ECCENTRICITY":0.0003243,"INCLINATION":70.0042,"RA_OF_ASC_NODE":134.6192,"ARG_OF_PERICENTER":293.7349,"MEAN_ANOMALY":66.3469,"EPHEMERIS_TYPE":0,"CLASSIFICATION_TYPE":"U","NORAD_CAT_ID":64790,"ELEMENT_SET_NO":999,"REV_AT_EPOCH":3650,"BSTAR":0.00012593,"MEAN_MOTION_DOT":1.41e-5,"MEAN_MOTION_DDOT":0}]
